STARLINK-36809          
1 67929U 26036AB  26076.25002315 -.01855333  00000+0 -30095-1 0  9996
2 67929  43.0000 203.9681 0001577 264.9440  40.0633 15.55311364  4868
STARLINK-36865          
1 67930U 26036AC  26076.25002315 -.01874036  00000+0 -25544-1 0  9992
2 67930  43.0003 203.7071 0001703 273.8363 136.3675 15.59927094  4860
STARLINK-36781          
1 67931U 26036AD  26076.25002315 -.01870013  00000+0 -26074-1 0  9993
2 67931  43.0000 203.7461 0001670 273.7407 120.7394 15.59331927  4861
STARLINK-36301          
1 67932U 26037A   26076.28118675  .00160528  00000+0  74839-3 0  9999
2 67932  42.9978 152.0528 0001995 199.5379 160.5416 15.82085225  4452
STARLINK-36852          
1 67933U 26037B   26076.25002315 -.01926170  00000+0 -19298-1 0  9992
2 67933  42.9994 152.4540 0001219 278.8342 179.8232 15.67724958  4410
STARLINK-36861          
1 67934U 26037C   26076.21664883 -.00590592  00000+0 -30935-2 0  9999
2 67934  42.9980 152.4288 0001539 274.3291  85.7405 15.81347431  4447
STARLINK-36860          
1 67935U 26037D   26076.25002315 -.01951038  00000+0 -15466-1 0  9998
2 67935  42.9993 152.2964 0001000 275.7887 246.5058 15.73295268  4419
STARLINK-36848          
1 67936U 26037E   26076.25002315 -.01944085  00000+0 -17138-1 0  9991
2 67936  42.9993 152.3274 0001119 276.6364 232.9090 15.70810331  4412
STARLINK-36370          
1 67937U 26037F   26075.58564525 -.00420760  00000+0 -25629-2 0  9996
2 67937  42.9984 156.3020 0006783 282.4802  77.5309 15.77571951  4347
STARLINK-36371          
1 67938U 26037G   26076.25002315 -.01916781  00000+0 -12541-1 0  9998
2 67938  42.9995 152.1977 0000969 263.7487 297.4791 15.78072883  4413
STARLINK-36246          
1 67939U 26037H   26076.25002315 -.01947612  00000+0 -16592-1 0  9996
2 67939  42.9992 152.2875 0001126 272.8700 252.7244 15.71617682  4326
STARLINK-36907          
1 67940U 26037J   26076.27369771  .00104722  00000+0  49273-3 0  9990
2 67940  42.9984 151.9917 0001048 228.9867 131.0915 15.82065575  4459
